NORAD_CAT_ID,OBJECT_NAME,OBJECT_TYPE,EPOCH,MEAN_MOTION,ECCENTRICITY,INCLINATION,RA_OF_ASC_NODE,ARG_OF_PERICENTER,MEAN_ANOMALY,BSTAR,MEAN_MOTION_DOT,MEAN_MOTION_DDOT,TLE_LINE0,TLE_LINE1,TLE_LINE2,SEMIMAJOR_AXIS,PERIOD,APOGEE,PERIGEE,DECAYED
49742.0,STARLINK-3202,PAYLOAD,2024-04-01 06:04:39,15.0884967,0.0001196,53.2169,84.9211,98.9418,261.171,0.00035878,5.428e-05,0.0,0 STARLINK-3202,1 49742U 21115U   24092.25323854  .00005428  00000-0  35878-3 0  9998,2 49742  53.2169  84.9211 0001196  98.9418 261.1710 15.08849670128732,6917.851,95.437,540.543,538.888,0.0
49742.0,STARLINK-3202,PAYLOAD,2024-04-02 05:55:27,15.088425,0.0001429,53.2163,80.4602,96.3816,263.7339,0.00016126,2.28e-05,0.0,0 STARLINK-3202,1 49742U 21115U   24093.24684103  .00002280  00000-0  16126-3 0  9993,2 49742  53.2163  80.4602 0001429  96.3816 263.7339 15.08842500129993,6917.873,95.437,540.726,538.749,0.0
49742.0,STARLINK-3202,PAYLOAD,2024-04-02 23:24:41,15.08837005,0.0001436,53.2172,77.1906,101.1214,258.994,-7.9033e-05,-1.545e-05,0.0,0 STARLINK-3202,1 49742U 21115U   24093.97548389 -.00001545  00000-0 -79033-4 0  9990,2 49742  53.2172  77.1906 0001436 101.1214 258.9940 15.08837005128995,6917.89,95.438,540.748,538.761,0.0
49742.0,STARLINK-3202,PAYLOAD,2024-04-03 05:46:14,15.0884027,0.0001349,53.2176,76.0027,100.1894,259.925,-6.4356e-06,-3.9e-06,0.0,0 STARLINK-3202,1 49742U 21115U   24094.24044577 -.00000390  00000-0 -64356-5 0  9991,2 49742  53.2176  76.0027 0001349 100.1894 259.9250 15.08840270130140,6917.88,95.438,540.678,538.811,0.0
49742.0,STARLINK-3202,PAYLOAD,2024-04-03 15:18:33,15.08843101,0.0001356,53.2179,74.2195,99.3262,260.7883,-6.2518e-05,-1.283e-05,0.0,0 STARLINK-3202,1 49742U 21115U   24094.63788475 -.00001283  00000-0 -62518-4 0  9995,2 49742  53.2179  74.2195 0001356  99.3262 260.7883 15.08843101129095,6917.871,95.437,540.674,538.798,0.0
49742.0,STARLINK-3202,PAYLOAD,2024-04-04 08:47:47,15.08837204,0.0001411,53.2179,70.9477,103.5083,256.6066,9.2684e-05,1.187e-05,0.0,0 STARLINK-3202,1 49742U 21115U   24095.36652732  .00001187  00000-0  92684-4 0  9990,2 49742  53.2179  70.9477 0001411 103.5083 256.6066 15.08837204130313,6917.889,95.438,540.73,538.778,0.0
49742.0,STARLINK-3202,PAYLOAD,2024-04-04 15:09:20,15.08839795,0.0001362,53.218,69.7577,99.6985,260.4161,5.6483e-05,6.11e-06,0.0,0 STARLINK-3202,1 49742U 21115U   24095.63148686  .00000611  00000-0  56483-4 0  9996,2 49742  53.2180  69.7577 0001362  99.6985 260.4161 15.08839795129249,6917.881,95.438,540.688,538.804,0.0
49742.0,STARLINK-3202,PAYLOAD,2024-04-05 08:38:34,15.08841331,0.0001405,53.2182,66.4871,97.9336,262.1816,0.00013479,1.858e-05,0.0,0 STARLINK-3202,1 49742U 21115U   24096.36012689  .00001858  00000-0  13479-3 0  9991,2 49742  53.2182  66.4871 0001405  97.9336 262.1816 15.08841331129358,6917.876,95.437,540.713,538.769,0.0
49742.0,STARLINK-3202,PAYLOAD,2024-04-05 15:00:07,15.08839942,0.0001356,53.2183,65.2967,88.559,271.5557,9.7519e-05,1.264e-05,0.0,0 STARLINK-3202,1 49742U 21115U   24096.62508883  .00001264  00000-0  97519-4 0  9995,2 49742  53.2183  65.2967 0001356  88.5590 271.5557 15.08839942130505,6917.881,95.438,540.684,538.808,0.0
49742.0,STARLINK-3202,PAYLOAD,2024-04-06 06:53:58,15.08847465,0.0001482,53.2181,62.3237,91.927,268.1892,9.0657e-05,1.155e-05,0.0,0 STARLINK-3202,1 49742U 21115U   24097.28748452  .00001155  00000-0  90657-4 0  9991,2 49742  53.2181  62.3237 0001482  91.9270 268.1892 15.08847465129493,6917.858,95.437,540.748,538.697,0.0
49742.0,STARLINK-3202,PAYLOAD,2024-04-06 14:50:54,15.08839488,0.0001448,53.2187,60.8368,84.1117,276.004,5.0457e-05,5.15e-06,0.0,0 STARLINK-3202,1 49742U 21115U   24097.61869093  .00000515  00000-0  50457-4 0  9996,2 49742  53.2187  60.8368 0001448  84.1117 276.0040 15.08839488129548,6917.882,95.438,540.749,538.745,0.0
49742.0,STARLINK-3202,PAYLOAD,2024-04-07 06:44:46,15.08842254,0.0001492,53.2189,57.8603,86.383,273.7333,4.5165e-05,4.31e-06,0.0,0 STARLINK-3202,1 49742U 21115U   24098.28108993  .00000431  00000-0  45165-4 0  9992,2 49742  53.2189  57.8603 0001492  86.3830 273.7333 15.08842254129648,6917.873,95.437,540.771,538.706,0.0
49742.0,STARLINK-3202,PAYLOAD,2024-04-07 14:41:41,15.0884286,0.0001546,53.2192,56.3747,85.5712,274.5456,6.6792e-05,7.75e-06,0.0,0 STARLINK-3202,1 49742U 21115U   24098.61228926  .00000775  00000-0  66792-4 0  9998,2 49742  53.2192  56.3747 0001546  85.5712 274.5456 15.08842860129698,6917.872,95.437,540.806,538.667,0.0
49742.0,STARLINK-3202,PAYLOAD,2024-04-08 03:24:46,15.08850166,0.0001614,53.2193,53.997,83.3832,276.7343,2.5634e-05,1.2e-06,0.0,0 STARLINK-3202,1 49742U 21115U   24099.14220615  .00000120  00000-0  25634-4 0  9998,2 49742  53.2193  53.9970 0001614  83.3832 276.7343 15.08850166130885,6917.849,95.437,540.831,538.598,0.0
49742.0,STARLINK-3202,PAYLOAD,2024-04-08 14:32:28,15.088518,0.0001574,53.2188,51.9156,84.0226,276.0945,-6.7281e-05,-1.359e-05,0.0,0 STARLINK-3202,1 49742U 21115U   24099.60588491 -.00001359  00000-0 -67281-4 0  9999,2 49742  53.2188  51.9156 0001574  84.0226 276.0945 15.08851800129844,6917.844,95.437,540.798,538.62,0.0
49742.0,STARLINK-3202,PAYLOAD,2024-04-08 20:54:01,15.08841122,0.0001728,53.2188,50.7267,80.4813,279.6374,9.8898e-05,1.286e-05,0.0,0 STARLINK-3202,1 49742U 21115U   24099.87084958  .00001286  00000-0  98898-4 0  9992,2 49742  53.2188  50.7267 0001728  80.4813 279.6374 15.08841122130996,6917.877,95.437,540.937,538.547,0.0
49742.0,STARLINK-3202,PAYLOAD,2024-04-09 00:04:47,15.08841497,0.0001651,53.2184,50.132,81.1785,278.9394,0.00010119,1.323e-05,0.0,0 STARLINK-3202,1 49742U 21115U   24100.00332899  .00001323  00000-0  10119-3 0  9991,2 49742  53.2184  50.1320 0001651  81.1785 278.9394 15.08841497129905,6917.876,95.437,540.883,538.599,0.0
49742.0,STARLINK-3202,PAYLOAD,2024-04-09 06:26:19,15.0888153,0.0001389,53.2181,48.9402,86.6231,273.492,-0.00044908,-7.436e-05,0.0,0 STARLINK-3202,1 49742U 21115U   24100.26827625 -.00007436  00000-0 -44908-3 0  9991,2 49742  53.2181  48.9402 0001389  86.6231 273.4920 15.08881530131058,6917.753,95.435,540.579,538.658,0.0
49742.0,STARLINK-3202,PAYLOAD,2024-04-10 01:30:58,15.08835369,0.0001496,53.2191,45.3722,96.1186,263.9977,-2.0907e-05,-6.21e-06,0.0,0 STARLINK-3202,1 49742U 21115U   24101.06317565 -.00000621  00000-0 -20907-4 0  9990,2 49742  53.2191  45.3722 0001496  96.1186 263.9977 15.08835369131177,6917.895,95.438,540.794,538.725,0.0
49742.0,STARLINK-3202,PAYLOAD,2024-04-10 12:38:40,15.08839954,0.000146,53.2191,43.2906,98.0698,262.046,-4.8372e-05,-1.058e-05,0.0,0 STARLINK-3202,1 49742U 21115U   24101.52685368 -.00001058  00000-0 -48372-4 0  9991,2 49742  53.2191  43.2906 0001460  98.0698 262.0460 15.08839954130134,6917.881,95.438,540.756,538.736,0.0
49742.0,STARLINK-3202,PAYLOAD,2024-04-10 20:35:35,15.08837302,0.0001439,53.2191,41.8037,96.8822,263.2334,3.1331e-05,2.11e-06,0.0,0 STARLINK-3202,1 49742U 21115U   24101.85805450  .00000211  00000-0  31331-4 0  9998,2 49742  53.2191  41.8037 0001439  96.8822 263.2334 15.08837302130187,6917.889,95.438,540.749,538.758,0.0
49742.0,STARLINK-3202,PAYLOAD,2024-04-11 02:57:08,15.08843676,0.0001348,53.2188,40.6167,92.1497,267.9649,8.4279e-05,1.054e-05,0.0,0 STARLINK-3202,1 49742U 21115U   24102.12300949  .00001054  00000-0  84279-4 0  9997,2 49742  53.2188  40.6167 0001348  92.1497 267.9649 15.08843676131339,6917.869,95.437,540.667,538.802,0.0
49742.0,STARLINK-3202,PAYLOAD,2024-04-11 12:29:26,15.08846238,0.0001205,53.2183,38.8331,90.4551,269.6579,3.4417e-05,2.6e-06,0.0,0 STARLINK-3202,1 49742U 21115U   24102.52044798  .00000260  00000-0  34417-4 0  9995,2 49742  53.2183  38.8331 0001205  90.4551 269.6579 15.08846238130281,6917.861,95.437,540.56,538.893,0.0
49742.0,STARLINK-3202,PAYLOAD,2024-04-12 02:47:55,15.08833635,0.0001602,53.2201,36.161,114.0337,246.0823,3.8785e-05,3.29e-06,0.0,0 STARLINK-3202,1 49742U 21115U   24103.11661979  .00000329  00000-0  38785-4 0  9995,2 49742  53.2201  36.1610 0001602 114.0337 246.0823 15.08833635131480,6917.9,95.438,540.873,538.657,0.0
49742.0,STARLINK-3202,PAYLOAD,2024-04-13 04:14:05,15.08846354,0.0001585,53.2202,31.3991,94.5231,265.5942,0.00010654,1.408e-05,0.0,0 STARLINK-3202,1 49742U 21115U   24104.17645346  .00001408  00000-0  10654-3 0  9995,2 49742  53.2202  31.3991 0001585  94.5231 265.5942 15.08846354131643,6917.861,95.437,540.822,538.629,0.0
49742.0,STARLINK-3202,PAYLOAD,2024-04-14 02:29:30,15.08841646,0.0002189,53.22,27.2357,64.0998,296.0219,9.6997e-05,1.256e-05,0.0,0 STARLINK-3202,1 49742U 21115U   24105.10382053  .00001256  00000-0  96997-4 0  9998,2 49742  53.2200  27.2357 0002189  64.0998 296.0219 15.08841646131784,6917.875,95.437,541.255,538.226,0.0
49742.0,STARLINK-3202,PAYLOAD,2024-04-15 03:55:39,15.08852904,0.0001933,53.2216,22.4678,69.0668,291.0531,8.0774e-05,9.98e-06,0.0,0 STARLINK-3202,1 49742U 21115U   24106.16365081  .00000998  00000-0  80774-4 0  9995,2 49742  53.2216  22.4678 0001933  69.0668 291.0531 15.08852904131948,6917.841,95.437,541.043,538.369,0.0
49742.0,STARLINK-3202,PAYLOAD,2024-04-15 21:24:54,15.08848737,0.0001775,53.22,19.2034,124.1283,235.9878,-7.3089e-06,-4.04e-06,0.0,0 STARLINK-3202,1 49742U 21115U   24106.89229187 -.00000404  00000-0 -73089-5 0  9997,2 49742  53.2200  19.2034 0001775 124.1283 235.9878 15.08848737132054,6917.854,95.437,540.947,538.491,0.0
49742.0,STARLINK-3202,PAYLOAD,2024-04-16 03:46:26,15.08853186,0.0001801,53.2189,18.0142,79.6146,280.5049,9.4218e-05,1.212e-05,0.0,0 STARLINK-3202,1 49742U 21115U   24107.15724999  .00001212  00000-0  94218-4 0  9990,2 49742  53.2189  18.0142 0001801  79.6146 280.5049 15.08853186130989,6917.84,95.437,540.951,538.459,0.0
49742.0,STARLINK-3202,PAYLOAD,2024-04-16 21:15:40,15.08855628,0.0001434,53.218,14.7429,88.8647,271.2509,9.3487e-05,1.201e-05,0.0,0 STARLINK-3202,1 49742U 21115U   24107.88588585  .00001201  00000-0  93487-4 0  9994,2 49742  53.2180  14.7429 0001434  88.8647 271.2509 15.08855628131095,6917.833,95.437,540.69,538.706,0.0
